NORAD_CAT_ID,OBJECT_NAME,OBJECT_TYPE,EPOCH,MEAN_MOTION,ECCENTRICITY,INCLINATION,RA_OF_ASC_NODE,ARG_OF_PERICENTER,MEAN_ANOMALY,BSTAR,MEAN_MOTION_DOT,MEAN_MOTION_DDOT,TLE_LINE0,TLE_LINE1,TLE_LINE2,SEMIMAJOR_AXIS,PERIOD,APOGEE,PERIGEE,DECAYED
53157.0,STARLINK-4093,PAYLOAD,2023-05-26 17:43:39,15.08839648,0.0001484,53.2162,53.8802,74.0449,286.0707,3.5092e-05,2.71e-06,0.0,0 STARLINK-4093,1 53157U 22083AB  23146.73864915  .00000271  00000-0  35092-4 0  9998,2 53157  53.2162  53.8802 0001484  74.0449 286.0707 15.08839648 48311,6917.881,95.438,540.773,538.72,0.0
53157.0,STARLINK-4093,PAYLOAD,2023-05-27 20:45:12,15.08843827,0.0001245,53.2172,48.821,96.5186,263.5948,8.2276e-05,1.022e-05,0.0,0 STARLINK-4093,1 53157U 22083AB  23147.86472529  .00001022  00000-0  82276-4 0  9990,2 53157  53.2172  48.8210 0001245  96.5186 263.5948 15.08843827 48480,6917.869,95.437,540.595,538.872,0.0
53157.0,STARLINK-4093,PAYLOAD,2023-05-27 23:55:58,15.08846088,0.0001305,53.2175,48.2269,89.7697,270.3445,0.00010112,1.322e-05,0.0,0 STARLINK-4093,1 53157U 22083AB  23147.99720349  .00001322  00000-0  10112-3 0  9992,2 53157  53.2175  48.2269 0001305  89.7697 270.3445 15.08846088 47871,6917.862,95.437,540.63,538.824,0.0
53157.0,STARLINK-4093,PAYLOAD,2023-05-28 20:35:59,15.08844002,0.0001224,53.2176,44.3613,88.1075,272.0058,0.0001176,1.584e-05,0.0,0 STARLINK-4093,1 53157U 22083AB  23148.85832432  .00001584  00000-0  11760-3 0  9995,2 53157  53.2176  44.3613 0001224  88.1075 272.0058 15.08844002 48004,6917.868,95.437,540.58,538.886,0.0
53157.0,STARLINK-4093,PAYLOAD,2023-05-28 23:46:45,15.08848603,0.0001199,53.2178,43.7661,92.3475,267.7655,0.00015177,2.129e-05,0.0,0 STARLINK-4093,1 53157U 22083AB  23148.99080026  .00002129  00000-0  15177-3 0  9996,2 53157  53.2178  43.7661 0001199  92.3475 267.7655 15.08848603 48650,6917.854,95.437,540.549,538.89,0.0
53157.0,STARLINK-4093,PAYLOAD,2023-05-29 17:16:00,15.08836397,0.0001174,53.2172,40.4967,85.0909,275.0218,-3.4135e-06,-3.42e-06,0.0,0 STARLINK-4093,1 53157U 22083AB  23149.71945276 -.00000342  00000-0 -34135-5 0  9998,2 53157  53.2172  40.4967 0001174  85.0909 275.0218 15.08836397 48767,6917.891,95.438,540.569,538.944,0.0
53157.0,STARLINK-4093,PAYLOAD,2023-05-29 20:26:47,15.08835134,0.0001152,53.2174,39.9022,84.6832,275.4291,-1.4888e-05,-5.25e-06,0.0,0 STARLINK-4093,1 53157U 22083AB  23149.85193400 -.00000525  00000-0 -14888-4 0  9992,2 53157  53.2174  39.9022 0001152  84.6832 275.4291 15.08835134 48156,6917.895,95.438,540.557,538.963,0.0
53157.0,STARLINK-4093,PAYLOAD,2023-05-29 23:37:33,15.08835526,0.0001165,53.2176,39.3072,84.6819,275.4306,-9.273e-06,-4.35e-06,0.0,0 STARLINK-4093,1 53157U 22083AB  23149.98441378 -.00000435  00000-0 -92730-5 0  9999,2 53157  53.2176  39.3072 0001165  84.6819 275.4306 15.08835526 48170,6917.894,95.438,540.565,538.953,0.0
53157.0,STARLINK-4093,PAYLOAD,2023-05-30 21:52:57,15.08841554,0.000103,53.2178,35.1437,90.7353,269.3757,2.2299e-05,6.7e-07,0.0,0 STARLINK-4093,1 53157U 22083AB  23150.91177134  .00000067  00000-0  22299-4 0  9991,2 53157  53.2178  35.1437 0001030  90.7353 269.3757 15.08841554 48319,6917.876,95.437,540.453,539.028,0.0
53157.0,STARLINK-4093,PAYLOAD,2023-05-30 23:28:20,15.08843215,9.93e-05,53.2176,34.8468,96.6538,263.4567,4.2878e-05,3.95e-06,0.0,0 STARLINK-4093,1 53157U 22083AB  23150.97800947  .00000395  00000-0  42878-4 0  9991,2 53157  53.2176  34.8468 0000993  96.6538 263.4567 15.08843215 48954,6917.871,95.437,540.423,539.049,0.0
53157.0,STARLINK-4093,PAYLOAD,2023-05-31 21:43:44,15.08837125,0.0001012,53.2172,30.6842,103.3779,256.7326,0.00012758,1.743e-05,0.0,0 STARLINK-4093,1 53157U 22083AB  23151.90537447  .00001743  00000-0  12758-3 0  9998,2 53157  53.2172  30.6842 0001012 103.3779 256.7326 15.08837125 48463,6917.889,95.438,540.454,539.054,0.0
53157.0,STARLINK-4093,PAYLOAD,2023-06-01 00:54:30,15.08841887,0.0001034,53.2172,30.0896,104.5038,255.6069,0.00016966,2.414e-05,0.0,0 STARLINK-4093,1 53157U 22083AB  23152.03785103  .00002414  00000-0  16966-3 0  9998,2 53157  53.2172  30.0896 0001034 104.5038 255.6069 15.08841887 49116,6917.875,95.437,540.455,539.024,0.0
53157.0,STARLINK-4093,PAYLOAD,2023-06-02 00:45:17,15.08843618,0.0001081,53.2162,25.6298,105.4435,254.6676,9.5269e-05,1.229e-05,0.0,0 STARLINK-4093,1 53157U 22083AB  23153.03145103  .00001229  00000-0  95269-4 0  9996,2 53157  53.2162  25.6298 0001081 105.4435 254.6676 15.08843618 48637,6917.869,95.437,540.482,538.987,0.0
53157.0,STARLINK-4093,PAYLOAD,2023-06-02 21:25:18,15.08837283,0.0001172,53.2171,21.761,107.0366,253.0755,-9.5747e-06,-4.4e-06,0.0,0 STARLINK-4093,1 53157U 22083AB  23153.89257601 -.00000440  00000-0 -95747-5 0  9995,2 53157  53.2171  21.7610 0001172 107.0366 253.0755 15.08837283 48760,6917.889,95.438,540.564,538.943,0.0
53157.0,STARLINK-4093,PAYLOAD,2023-06-03 21:16:05,15.08845979,0.0001023,53.2169,17.3037,94.493,265.6179,8.1115e-05,1.004e-05,0.0,0 STARLINK-4093,1 53157U 22083AB  23154.88617275  .00001004  00000-0  81115-4 0  9990,2 53157  53.2169  17.3037 0001023  94.4930 265.6179 15.08845979 48919,6917.862,95.437,540.435,539.019,0.0
53157.0,STARLINK-4093,PAYLOAD,2023-06-04 00:26:51,15.088505,0.0001087,53.2174,16.707,97.7799,262.3316,9.1405e-05,1.168e-05,0.0,0 STARLINK-4093,1 53157U 22083AB  23155.01864925  .00001168  00000-0  91405-4 0  9996,2 53157  53.2174  16.7070 0001087  97.7799 262.3316 15.08850500 49569,6917.848,95.437,540.465,538.961,0.0
53157.0,STARLINK-4093,PAYLOAD,2023-06-04 09:59:10,15.08841117,0.0001159,53.2171,14.9213,99.7066,260.4057,1.6486e-05,-2.5e-07,0.0,0 STARLINK-4093,1 53157U 22083AB  23155.41609556 -.00000025  00000-0  16486-4 0  9995,2 53157  53.2171  14.9213 0001159  99.7066 260.4057 15.08841117 48995,6917.877,95.437,540.544,538.94,0.0
53157.0,STARLINK-4093,PAYLOAD,2023-06-04 19:31:29,15.0883319,9.92e-05,53.2173,13.1395,94.7121,265.3984,9.812e-05,1.274e-05,0.0,0 STARLINK-4093,1 53157U 22083AB  23155.81354049  .00001274  00000-0  98120-4 0  9994,2 53157  53.2173  13.1395 0000992  94.7121 265.3984 15.08833190 49682,6917.901,95.438,540.452,539.08,0.0
53157.0,STARLINK-4093,PAYLOAD,2023-06-04 21:06:52,15.08840517,0.0001027,53.2174,12.8426,86.7464,273.3645,7.4973e-05,9.06e-06,0.0,0 STARLINK-4093,1 53157U 22083AB  23155.87977735  .00000906  00000-0  74973-4 0  9994,2 53157  53.2174  12.8426 0001027  86.7464 273.3645 15.08840517 49061,6917.879,95.438,540.454,539.033,0.0
53157.0,STARLINK-4093,PAYLOAD,2023-06-05 19:22:16,15.08843548,0.0001029,53.2173,8.6793,85.0607,275.0502,6.3762e-05,7.27e-06,0.0,0 STARLINK-4093,1 53157U 22083AB  23156.80713590  .00000727  00000-0  63762-4 0  9990,2 53157  53.2173   8.6793 0001029  85.0607 275.0502 15.08843548 49207,6917.87,95.437,540.446,539.023,0.0
53157.0,STARLINK-4093,PAYLOAD,2023-06-05 22:33:02,15.08850113,0.0001062,53.2175,8.0832,86.7571,273.3543,6.363e-05,7.25e-06,0.0,0 STARLINK-4093,1 53157U 22083AB  23156.93961128  .00000725  00000-0  63630-4 0  9998,2 53157  53.2175   8.0832 0001062  86.7571 273.3543 15.08850113 49855,6917.849,95.437,540.449,538.98,0.0
53157.0,STARLINK-4093,PAYLOAD,2023-06-06 09:40:45,15.08835127,0.000104,53.2172,6.0032,86.2401,273.871,6.9049e-05,8.11e-06,0.0,0 STARLINK-4093,1 53157U 22083AB  23157.40330067  .00000811  00000-0  69049-4 0  9999,2 53157  53.2172   6.0032 0001040  86.2401 273.8710 15.08835127 49922,6917.895,95.438,540.48,539.041,0.0
53157.0,STARLINK-4093,PAYLOAD,2023-06-06 19:13:03,15.08836725,0.0001032,53.2171,4.2196,84.5042,275.6068,8.4238e-05,1.053e-05,0.0,0 STARLINK-4093,1 53157U 22083AB  23157.80074024  .00001053  00000-0  84238-4 0  9997,2 53157  53.2171   4.2196 0001032  84.5042 275.6068 15.08836725 49353,6917.89,95.438,540.469,539.041,0.0
53157.0,STARLINK-4093,PAYLOAD,2023-06-06 23:59:12,15.08844868,0.0001072,53.217,3.3267,86.5752,273.5363,0.00011092,1.478e-05,0.0,0 STARLINK-4093,1 53157U 22083AB  23157.99945421  .00001478  00000-0  11092-3 0  9993,2 53157  53.2170   3.3267 0001072  86.5752 273.5363 15.08844868 50012,6917.866,95.437,540.472,538.989,0.0
53157.0,STARLINK-4093,PAYLOAD,2023-06-07 09:31:32,15.0883377,0.0001035,53.2169,1.5429,64.7161,295.3939,-3.0705e-05,-7.76e-06,0.0,0 STARLINK-4093,1 53157U 22083AB  23158.39690633 -.00000776  00000-0 -30705-4 0  9995,2 53157  53.2169   1.5429 0001035  64.7161 295.3939 15.08833770 50078,6917.899,95.438,540.48,539.048,0.0
53157.0,STARLINK-4093,PAYLOAD,2023-06-07 20:39:14,15.08836504,9.31e-05,53.2172,359.4615,85.4538,274.656,-9.7519e-06,-4.43e-06,0.0,0 STARLINK-4093,1 53157U 22083AB  23158.86058468 -.00000443  00000-0 -97519-5 0  9999,2 53157  53.2172 359.4615 0000931  85.4538 274.6560 15.08836504 49511,6917.891,95.438,540.4,539.112,0.0
53157.0,STARLINK-4093,PAYLOAD,2023-06-08 06:11:33,15.08837922,9.58e-05,53.2173,357.6774,86.6589,273.4513,3.88e-05,3.3e-06,0.0,0 STARLINK-4093,1 53157U 22083AB  23159.25802344  .00000330  00000-0  38800-4 0  9993,2 53157  53.2173 357.6774 0000958  86.6589 273.4513 15.08837922 50204,6917.887,95.438,540.414,539.089,0.0
53157.0,STARLINK-4093,PAYLOAD,2023-06-08 22:05:23,15.08848442,9.01e-05,53.2172,354.7034,92.0576,268.0519,0.00011818,1.594e-05,0.0,0 STARLINK-4093,1 53157U 22083AB  23159.92041568  .00001594  00000-0  11818-3 0  9992,2 53157  53.2172 354.7034 0000901  92.0576 268.0519 15.08848442 50301,6917.855,95.437,540.343,539.096,0.0
53157.0,STARLINK-4093,PAYLOAD,2023-06-09 06:02:20,15.08841565,9.28e-05,53.2174,353.2146,91.2959,268.814,2.0972e-05,4.6e-07,0.0,0 STARLINK-4093,1 53157U 22083AB  23160.25162145  .00000046  00000-0  20972-4 0  9998,2 53157  53.2174 353.2146 0000928  91.2959 268.8140 15.08841565 50358,6917.876,95.437,540.383,539.099,0.0
53157.0,STARLINK-4093,PAYLOAD,2023-06-09 12:23:52,15.08836109,0.0001043,53.2174,352.0267,82.667,277.4441,0.00012084,1.636e-05,0.0,0 STARLINK-4093,1 53157U 22083AB  23160.51658474  .00001636  00000-0  12084-3 0  9992,2 53157  53.2174 352.0267 0001043  82.6670 277.4441 15.08836109 49763,6917.892,95.438,540.479,539.036,0.0
